DMSP 5D-3 F16 (USA 172) 
1 28054U 03048A   26065.30324266  .00000189  00000+0  12228-3 0  9994
2 28054  98.9996  88.4048 0008172  81.1566 289.6282 14.14460598154940
METEOSAT-9 (MSG-2)      
1 28912U 05049B   26065.06711492  .00000121  00000+0  00000+0 0  9991
2 28912   9.1287  55.1656 0001636 223.7323 314.8216  1.00278249  5965
DMSP 5D-3 F17 (USA 191) 
1 29522U 06050A   26065.28379698  .00000240  00000+0  14663-3 0  9990
2 29522  98.7414  73.9482 0009966 356.7443   3.3664 14.14962150997864
FENGYUN 3A              
1 32958U 08026A   26065.28147591  .00000158  00000+0  95357-4 0  9995
2 32958  98.6794   8.0922 0009760  67.0681 293.1524 14.19545134920805
GOES 14                 
1 35491U 09033A   26065.16572465  .00000120  00000+0  00000+0 0  9993
2 35491   1.4238  84.3957 0001780 255.5978  84.3240  1.00100143  5551
DMSP 5D-3 F18 (USA 210) 
1 35951U 09057A   26065.24713593  .00000357  00000+0  20795-3 0  9997
2 35951  98.8960  46.2882 0010933 178.0597 182.0620 14.14833413845039
EWS-G2 (GOES 15)        
1 36411U 10008A   26065.16626162  .00000016  00000+0  00000+0 0  9998
2 36411   1.0131  85.1126 0002005  18.4418 183.6554  1.00269713 58609
COMS 1                  
1 36744U 10032A   26064.95739014 -.00000349  00000+0  00000+0 0  9991
2 36744   4.5396  76.8490 0001227 290.3304 269.3388  1.00271922 50053
FENGYUN 3B              
1 37214U 10059A   26065.27991277  .00000387  00000+0  22343-3 0  9999
2 37214  98.9769 110.7945 0023029 117.4613  15.2891 14.14817254792879
SUOMI NPP               
1 37849U 11061A   26065.28948032  .00000144  00000+0  89148-4 0  9997
2 37849  98.7867   6.9192 0000402 263.2278  96.8853 14.19542441743841
METEOSAT-10 (MSG-3)     
1 38552U 12035B   26065.22502188 -.00000010  00000+0  00000+0 0  9991
2 38552   4.4280  61.4557 0002494 282.3505 261.3987  1.00267763 49826
METOP-B                 
1 38771U 12049A   26065.27743605  .00000173  00000+0  98863-4 0  9993
2 38771  98.6649 118.7664 0001189 284.6654  75.4392 14.21443484698645
INSAT-3D                
1 39216U 13038B   26065.25041532 -.00000344  00000+0  00000+0 0  9997
2 39216   1.6601  83.8888 0001701 246.5341  53.1897  1.00272710 46041
FENGYUN 3C              
1 39260U 13052A   26065.28344431  .00000166  00000+0  10564-3 0  9990
2 39260  98.4887  43.9382 0014002 323.5383  36.4838 14.15727658644001
METEOR-M 2              
1 40069U 14037A   26065.23417751  .00000236  00000+0  12733-3 0  9992
2 40069  98.5021  44.6730 0005593 348.3588  11.7460 14.21427126604695
HIMAWARI-8              
1 40267U 14060A   26064.96764973 -.00000282  00000+0  00000+0 0  9990
2 40267   0.0252 238.2083 0000720  99.4681 315.0191  1.00271621 41726
FENGYUN 2G              
1 40367U 14090A   26065.03080104 -.00000307  00000+0  00000+0 0  9998
2 40367   5.3782  74.0681 0001751 151.2424  49.2255  1.00274017 40964
